SENTINEL-6              
1 46984U 20086A   24024.71308684 -.00000074  00000+0 -56155-4 0  9994
2 46984  66.0411 151.3440 0007758 269.9770  90.0356 12.80930272148321
